OBJECTID,Station Type,County,Division,Region,Country,Lifesaving Area,Lifesaving Region,URL,Station,SAP_ID,Lat (DecDeg),(Long (DecDeg),x,y
1,ILB,Fermanagh,North & IOM,Ireland,NIR,IR6,Ireland,https://rnli.org/find-my-nearest/lifeboat-stations/enniskillen-lifeboat-station,Enniskillen,1098,54.42248535,-7.68214416999996,-855172.377204911,7250579.49851477
2,ILB,Fermanagh,North & IOM,Ireland,NIR,IR6,Ireland,https://rnli.org/find-my-nearest/lifeboat-stations/carrybridge-lifeboat-station,Carrybridge,1099,54.287517,-7.54842299999996,-840286.60465223,7224797.71981382
3,ALB,Antrim,North & IOM,Ireland,NIR,IR1,Ireland,https://rnli.org/find-my-nearest/lifeboat-stations/portrush-lifeboat-station,Portrush,1111,55.2068100000001,-6.65661477999993,-741010.967716571,7402107.61483906
4,ALB,Antrim,North & IOM,Ireland,NIR,IR1,Ireland,https://rnli.org/find-my-nearest/lifeboat-stations/red-bay-lifeboat-station,Red Bay,1128,55.0749969500001,-6.05346393999997,-673868.52333624,7376435.11762688
5,ALB,Antrim,North & IOM,Ireland,NIR,IR1,Ireland,https://rnli.org/find-my-nearest/lifeboat-stations/larne-lifeboat-station,Larne,1130,54.84673309,-5.80012893999998,-645667.400136127,7332176.77088768
6,ILB,Down,North & IOM,Ireland,NIR,IR1,Ireland,https://rnli.org/find-my-nearest/lifeboat-stations/bangor-lifeboat-station,Bangor (Co Down),1133,54.6656951900001,-5.66716718999993,-630866.165831139,7297252.83404556
7,ALB,Down,North & IOM,Ireland,NIR,IR1,Ireland,https://rnli.org/find-my-nearest/lifeboat-stations/donaghadee-lifeboat-station,Donaghadee,1155,54.6434326200001,-5.53198384999996,-615817.625258609,7292968.93063239
8,ILB,Down,North & IOM,Ireland,NIR,IR1,Ireland,https://rnli.org/find-my-nearest/lifeboat-stations/portaferry-lifeboat-station,Portaferry,1178,54.38088608,-5.54928922999994,-617744.051348191,7242624.13409224
9,ALB,Down,North & IOM,Ireland,NIR,IR1,Ireland,https://rnli.org/find-my-nearest/lifeboat-stations/newcastle-lifeboat-station,Newcastle (Co Down),1189,54.1979637100001,-5.88715409999998,-655354.99663353,7207737.75734143
10,ILB,Down,North & IOM,Ireland,NIR,IR1,Ireland,https://rnli.org/find-my-nearest/lifeboat-stations/kilkeel-lifeboat-station,Kilkeel,1197,54.05849075,-5.99019097999997,-666825.009648057,7181241.53351515
11,ILB,Isle of Man,North & IOM,WalesAndWest,IOM,WW2,Wales&West,https://rnli.org/find-my-nearest/lifeboat-stations/port-erin-lifeboat-station,Port Erin,1202,54.08519363,-4.76800918999993,-530772.355128441,7186307.48647556
12,ALB,Isle of Man,North & IOM,WalesAndWest,IOM,WW2,Wales&West,https://rnli.org/find-my-nearest/lifeboat-stations/peel-lifeboat-station,Peel,1224,54.2270965600001,-4.69805001999993,-522984.53594772,7213283.52258818
13,ALB,Isle of Man,North & IOM,WalesAndWest,IOM,WW2,Wales&West,https://rnli.org/find-my-nearest/lifeboat-stations/ramsey-lifeboat-station,Ramsey,1246,54.3225593600001,-4.37840508999994,-487401.825105471,7231483.40940014
14,ALB,Isle of Man,North & IOM,WalesAndWest,IOM,WW2,Wales&West,https://rnli.org/find-my-nearest/lifeboat-stations/douglas-lifeboat-station,Douglas,1248,54.1448707600001,-4.46974610999996,-497569.860940411,7197640.96417936
15,ALB,Isle of Man,North & IOM,WalesAndWest,IOM,WW2,Wales&West,https://rnli.org/find-my-nearest/lifeboat-stations/port-st-mary-lifeboat-station,Port St Mary,1260,54.07045364,-4.73450088999994,-527042.228235093,7183510.67753408
16,ILB,Merseyside,Wales & North West,WalesAndWest,ENG,WW2,Wales&West,https://rnli.org/find-my-nearest/lifeboat-stations/west-kirby-lifeboat-station,West Kirby,1301,53.3660583500001,-3.18234395999997,-354256.909156246,7050997.94551094
17,ALB,Merseyside,Wales & North West,WalesAndWest,ENG,WW2,Wales&West,https://rnli.org/find-my-nearest/lifeboat-stations/hoylake-lifeboat-station,Hoylake,1314,53.399188,-3.17751299999998,-353719.129149004,7057180.96618569
18,ILB,Merseyside,Wales & North West,WalesAndWest,ENG,WW2,Wales&West,https://rnli.org/find-my-nearest/lifeboat-stations/new-brighton-lifeboat-station,New Brighton,1335,53.4394531300001,-3.04727410999993,-339221.002232718,7064702.17294861
19,ALB,Lancashire,West & North West,WalesAndWest,ENG,WW1,Wales&West,https://rnli.org/find-my-nearest/lifeboat-stations/lytham-st-annes-lifeboat-station,Lytham St Annes,1357,53.7467,-3.03259999999995,-337587.487779675,7122329.51335278
20,ILB,Lancashire,Wales & North West,WalesAndWest,ENG,WW1,Wales&West,https://rnli.org/find-my-nearest/lifeboat-stations/blackpool-lifeboat-station,Blackpool,1379,53.8134422300001,-3.05609797999995,-340203.270947946,7134903.35858487
21,ALB,Lancashire,Wales & North West,WalesAndWest,ENG,WW1,Wales&West,https://rnli.org/find-my-nearest/lifeboat-stations/fleetwood-lifeboat-station,Fleetwood,1391,53.9277572600001,-3.00653099999994,-334685.499974185,7156486.23857181
22,ILB,Lancashire,Wales & North West,WalesAndWest,ENG,WW1,Wales&West,https://rnli.org/find-my-nearest/lifeboat-stations/morecambe-lifeboat-station,Morecambe,1400,54.0751113900001,-2.86361193999994,-318775.822990332,7184394.34535696
23,ALB,Cumbria,Wales & North West,WalesAndWest,ENG,WW1,Wales&West,https://rnli.org/find-my-nearest/lifeboat-stations/barrow-lifeboat-station,Barrow,1422,54.0725097700001,-3.17332696999995,-353253.142420956,7183900.75407155
24,ILB,Cumbria,North & Scot South,WalesAndWest,ENG,WW1,Wales&West,https://rnli.org/find-my-nearest/lifeboat-stations/st-bees-lifeboat-station,St Bees,1444,54.4910965,-3.60655688999998,-401480.07651177,7263718.22288512
25,ALB,Cumbria,North & Scot South,WalesAndWest,ENG,WW1,Wales&West,https://rnli.org/find-my-nearest/lifeboat-stations/workington-lifeboat-station,Workington,1466,54.65088654,-3.56768893999993,-397153.316109586,7294402.99935942
26,ILB,Cumbria,North & Scot South,WalesAndWest,ENG,WW1,Wales&West,https://rnli.org/find-my-nearest/lifeboat-stations/silloth-lifeboat-station,Silloth,1488,54.8700180100001,-3.39316606999995,-377725.519089408,7336680.01602669
27,ILB,The Stewartry of Kirkcudbright,North & Scot South,Scotland,SCT,SC4,Scotland,https://rnli.org/find-my-nearest/lifeboat-stations/kippford-lifeboat-station,Kippford,2009,54.87649536,-3.81349801999994,-424516.65772755,7337933.18167058
28,ILB,The Stewartry of Kirkcudbright,North & Scot South,Scotland,SCT,SC4,Scotland,https://rnli.org/find-my-nearest/lifeboat-stations/kirkcudbright-lifeboat-station,Kirkcudbright,2027,54.7946650000001,-4.06245599999994,-452230.533290072,7322116.3277146
29,ALB,Wigtown,North & Scot South,Scotland,SCT,SC4,Scotland,https://rnli.org/find-my-nearest/lifeboat-stations/portpatrick-lifeboat-station,Portpatrick,2045,54.8419303900001,-5.11991881999995,-569946.755945293,7331248.26407777
30,ILB,Wigtown,North & Scot South,Scotland,SCT,SC4,Scotland,https://rnli.org/find-my-nearest/lifeboat-stations/stranraer-lifeboat-station,Stranraer,2052,54.90816879,-5.03522491999996,-560518.674123997,7344063.9066872
31,ALB,Ayrshire and Arran,Central & Shetland,Scotland,SCT,SC4,Scotland,https://rnli.org/find-my-nearest/lifeboat-stations/girvan-lifeboat-station,Girvan,2063,55.24337769,-4.85763883999994,-540749.882126421,7409244.75753429
32,ALB,Argyll and Bute,Central & Shetland,Scotland,SCT,SC5,Scotland,https://rnli.org/find-my-nearest/lifeboat-stations/campbeltown-lifeboat-station,Campbeltown,2081,55.4251709000001,-5.60196303999993,-623607.673055531,7444824.24450026
33,ILB,Ayrshire and Arran,Central & Shetland,Scotland,SCT,SC4,Scotland,https://rnli.org/find-my-nearest/lifeboat-stations/arran-lifeboat-station,Arran (Lamlash),2093,55.5352592500001,-5.12477921999994,-570487.813198343,7466449.77515644
34,ALB,Ayrshire and Arran,Central & Shetland,Scotland,SCT,SC4,Scotland,https://rnli.org/find-my-nearest/lifeboat-stations/troon-lifeboat-station,Troon,2108,55.5481224100001,-4.68140983999996,-521132.159583416,7468980.53548616
35,ALB,Argyll and Bute,Central & Shetland,Scotland,SCT,SC5,Scotland,https://rnli.org/find-my-nearest/lifeboat-stations/islay-lifeboat-station,Islay,2126,55.84852219,-6.10505914999993,-679612.075840808,7528319.6168858
36,ILB,Ayrshire and Arran,Central & Shetland,Scotland,SCT,SC4,Scotland,https://rnli.org/find-my-nearest/lifeboat-stations/largs-lifeboat-station,Largs,2144,55.8001518200001,-4.87068175999997,-542201.813339282,7518733.96810482
37,ILB,Dunbartonshire,Central & Shetland,Scotland,SCT,SC5,Scotland,https://rnli.org/find-my-nearest/lifeboat-stations/helensburgh-lifeboat-station,Helensburgh,2162,56.0130462600001,-4.77341699999994,-531374.349783949,7561013.23593748
38,ILB,Argyll and Bute,Central & Shetland,Scotland,SCT,SC5,Scotland,https://rnli.org/find-my-nearest/lifeboat-stations/tighnabruaich-lifeboat-station,Tighnabruaich,2180,55.9067344700001,-5.23264121999995,-582494.956114288,7539871.4861312
39,ALB,Argyll and Bute,Highlands,Scotland,SCT,SC5,Scotland,https://rnli.org/find-my-nearest/lifeboat-stations/oban-lifeboat-station,Oban,2194,56.4110298200001,-5.47961902999998,-609988.40016073,7640679.01608383
40,ALB,Argyll and Bute,Highlands,Scotland,SCT,SC5,Scotland,https://rnli.org/find-my-nearest/lifeboat-stations/tobermory-lifeboat-station,Tobermory,2200,56.62326813,-6.06437778999998,-675083.447560836,7683504.60351999
41,ALB,Inverness,Highlands,Scotland,SCT,SC5,Scotland,https://rnli.org/find-my-nearest/lifeboat-stations/mallaig-lifeboat-station,Mallaig,2201,57.0062866200001,-5.82900905999998,-648882.320388576,7761403.71202094
42,ALB,Western Isles,Central & Shetland,Scotland,SCT,SC6,Scotland,https://rnli.org/find-my-nearest/lifeboat-stations/barra-island-lifeboat-station,Barra Island,2223,56.9541244500001,-7.48712396999997,-833462.82784651,7750747.88333877
43,ILB,Ross and Cromarty,Highlands,Scotland,SCT,SC6,Scotland,https://rnli.org/find-my-nearest/lifeboat-stations/kyle-of-lochalsh-lifeboat-station,Kyle of Lochalsh,2229,57.2801551800001,-5.71470403999996,-636157.943767059,7817596.84897164
44,ALB,Ross and Cromarty,Highlands,Scotland,SCT,SC6,Scotland,https://rnli.org/find-my-nearest/lifeboat-stations/portree-lifeboat-station,Portree,2234,57.4107894900001,-6.19001817999998,-689069.671798704,7844548.12791878
45,ILB,Western Isles,Highlands,Scotland,SCT,SC6,Scotland,https://rnli.org/find-my-nearest/lifeboat-stations/leverburgh-lifeboat-station,Leverburgh,2240,57.7678060000001,-7.02378299999998,-781883.947002449,7918698.18193278
46,ALB,Western Isles,Highlands,Scotland,SCT,SC6,Scotland,https://rnli.org/find-my-nearest/lifeboat-stations/stornoway-lifeboat-station,Stornoway,2255,58.21006393,-6.38903808999993,-711224.466837621,8011575.47183839
47,ALB,Sutherland,Highlands,Scotland,SCT,SC6,Scotland,https://rnli.org/find-my-nearest/lifeboat-stations/lochinver-lifeboat-station,Lochinver,2263,58.1467895500001,-5.24759721999993,-584159.85041859,7998216.85673306
48,ALB,Caithness,Highlands,Scotland,SCT,SC1,Scotland,https://rnli.org/find-my-nearest/lifeboat-stations/thurso-lifeboat-station,Thurso,2281,58.61207962,-3.54693197999995,-394842.661891972,8097010.63539232
49,ALB,Orkney,Highlands,Scotland,SCT,SC1,Scotland,https://rnli.org/find-my-nearest/lifeboat-stations/longhope-lifeboat-station,Longhope,2318,58.8005790700001,-3.20692395999993,-356993.14223994,8137408.64251758
50,ALB,Orkney,Highlands,Scotland,SCT,SC1,Scotland,https://rnli.org/find-my-nearest/lifeboat-stations/stromness-lifeboat-station,Stromness,2336,58.96333694,-3.29768991999993,-367097.162688503,8172466.80783648
51,ALB,Shetland,Central & Shetland,Scotland,SCT,SC1,Scotland,https://rnli.org/find-my-nearest/lifeboat-stations/aith-lifeboat-station,Aith,2354,60.2863082900001,-1.37521397999996,-153088.119985386,8463758.99877745
52,ALB,Shetland,Central & Shetland,Scotland,SCT,SC1,Scotland,https://rnli.org/find-my-nearest/lifeboat-stations/lerwick-lifeboat-station,Lerwick,2372,60.1532402,-1.14059304999995,-126970.237528341,8433934.44089683
53,ALB,Orkney,Highlands,Scotland,SCT,SC1,Scotland,https://rnli.org/find-my-nearest/lifeboat-stations/kirkwall-lifeboat-station,Kirkwall,2390,58.9854278600001,-2.96036505999996,-329546.331041394,8177237.95368364
54,ALB,Caithness,Highlands,Scotland,SCT,SC1,Scotland,https://rnli.org/find-my-nearest/lifeboat-stations/wick-lifeboat-station,Wick,2401,58.43935013,-3.08292603999996,-343189.756926119,8060183.16615434
55,ALB,Ross and Cromarty,Highlands,Scotland,SCT,SC2,Scotland,https://rnli.org/find-my-nearest/lifeboat-stations/invergordon-lifeboat-station,Invergordon,2415,57.6865463300001,-4.16740703999994,-463913.629621097,7901756.95815806
56,ILB,Ross and Cromarty,Highlands,Scotland,SCT,SC2,Scotland,https://rnli.org/find-my-nearest/lifeboat-stations/kessock-lifeboat-station,Kessock,2419,57.5009422300001,-4.23466109999993,-471400.317334075,7863203.72786501
57,ILB,Inverness,Highlands,Scotland,SCT,SC2,Scotland,https://rnli.org/find-my-nearest/lifeboat-stations/loch-ness-lifeboat-station,Loch Ness,2421,57.3367271400001,-4.44443606999994,-494752.360175651,7829256.49122519
58,ALB,Banffshire,Highlands,Scotland,SCT,SC2,Scotland,https://rnli.org/find-my-nearest/lifeboat-stations/buckie-lifeboat-station,Buckie,2423,57.6808662400001,-2.95271205999995,-328694.402978353,7900574.17970806
59,ILB,Banffshire,Highlands,Scotland,SCT,SC2,Scotland,https://rnli.org/find-my-nearest/lifeboat-stations/macduff-lifeboat-station,Macduff,2434,57.67272568,-2.49433397999996,-277667.988521955,7898879.37494422
60,ALB,Aberdeenshire,Highlands,Scotland,SCT,SC2,Scotland,https://rnli.org/find-my-nearest/lifeboat-stations/fraserburgh-lifeboat-station,Fraserburgh,2445,57.6935463,-2.00281095999998,-222951.896222385,7903214.8333468
61,ALB,Aberdeenshire,Highlands,Scotland,SCT,SC2,Scotland,https://rnli.org/find-my-nearest/lifeboat-stations/peterhead-lifeboat-station,Peterhead,2467,57.5030822800001,-1.77463304999998,-197551.247470911,7863647.13487044
62,ALB,City of Aberdeen,Central & Shetland,Scotland,SCT,SC2,Scotland,https://rnli.org/find-my-nearest/lifeboat-stations/aberdeen-lifeboat-station,Aberdeen,2489,57.1440467800001,-2.08042907999993,-231592.305817111,7789617.75307687
63,ILB,Kincardineshire,Central & Shetland,Scotland,SCT,SC2,Scotland,https://rnli.org/find-my-nearest/lifeboat-stations/stonehaven-lifeboat-station,Stonehaven,2502,56.9610727,-2.20272729999994,-245206.481392435,7752166.42918495
64,ALB,Angus,Central & Shetland,Scotland,SCT,SC3,Scotland,https://rnli.org/find-my-nearest/lifeboat-stations/montrose-lifeboat-station,Montrose,2524,56.7068,-2.47209999999995,-275192.913190047,7700425.75932129
65,ALB,Angus,Central & Shetland,Scotland,SCT,SC3,Scotland,https://rnli.org/find-my-nearest/lifeboat-stations/arbroath-lifeboat-station,Arbroath,2546,56.5553016700001,-2.58483910999996,-287742.973507734,7669764.16082374
66,ALB,City of Dundee,Central & Shetland,Scotland,SCT,SC3,Scotland,https://rnli.org/find-my-nearest/lifeboat-stations/broughty-ferry-lifeboat-station,Broughty Ferry,2568,56.4649772600001,-2.87730907999997,-320300.58164046,7651541.85896419
67,ALB,Fife,Central & Shetland,Scotland,SCT,SC3,Scotland,https://rnli.org/find-my-nearest/lifeboat-stations/anstruther-lifeboat-station,Anstruther,2580,56.22143936,-2.69738506999994,-300271.532465772,7602624.85743871
68,ILB,Fife,Central & Shetland,Scotland,SCT,SC3,Scotland,https://rnli.org/find-my-nearest/lifeboat-stations/kinghorn-lifeboat-station,Kinghorn,2611,56.0686035200001,-3.17407297999995,-353336.187874283,7572084.81582286
69,ILB,City of Edinburgh,Central & Shetland,Scotland,SCT,SC3,Scotland,https://rnli.org/find-my-nearest/lifeboat-stations/queensferry-lifeboat-station,Queensferry,2633,55.99063492,-3.38525890999995,-376845.298064586,7556551.55937984
70,ILB,East Lothian,Central & Shetland,Scotland,SCT,SC3,Scotland,https://rnli.org/find-my-nearest/lifeboat-stations/north-berwick-lifeboat-station,North Berwick,2655,56.06032944,-2.71764397999993,-302526.744010998,7570434.92727801
71,ALB,East Lothian,Central & Shetland,Scotland,SCT,SC3,Scotland,https://rnli.org/find-my-nearest/lifeboat-stations/dunbar-lifeboat-station,Dunbar,2677,56.0050392200001,-2.51494407999996,-279962.294359154,7559418.88766356
72,ALB,Berwickshire,Central & Shetland,Scotland,SCT,SC3,Scotland,https://rnli.org/find-my-nearest/lifeboat-stations/eyemouth-lifeboat-station,Eyemouth,2702,55.8721771200001,-2.08611487999997,-232225.246177867,7533011.70351579
73,ALB,Northumberland,North & Scot South,NorthAndEast,ENG,NE1,North&East,https://rnli.org/find-my-nearest/lifeboat-stations/berwick-upon-tweed-lifeboat-station,Berwick-Upon-Tweed,3029,55.7609481800001,-2.00026797999993,-222668.812983682,7510973.64057866
74,ALB,Northumberland,North & Scot South,NorthAndEast,ENG,NE1,North&East,https://rnli.org/find-my-nearest/lifeboat-stations/seahouses-lifeboat-station,Seahouses,3047,55.5828857400001,-1.65403198999996,-184125.998882581,7475824.18730134
75,ILB,Northumberland,North & Scot South,NorthAndEast,ENG,NE1,North&East,https://rnli.org/find-my-nearest/lifeboat-stations/craster-lifeboat-station,Craster,3065,55.4726219200001,-1.59415995999996,-177461.07499022,7454138.01922325
76,ALB,Northumberland,North & Scot South,NorthAndEast,ENG,NE1,North&East,https://rnli.org/find-my-nearest/lifeboat-stations/amble-lifeboat-station,Amble,3083,55.33644867,-1.58167695999992,-176071.473786645,7427439.66222811
77,ILB,Northumberland,North & Scot South,NorthAndEast,ENG,NE1,North&East,https://rnli.org/find-my-nearest/lifeboat-stations/newbiggin-lifeboat-station,Newbiggin,3101,55.1859245300001,-1.50658905999995,-167712.726993911,7398034.20917258
78,ILB,Northumberland,North & Scot South,NorthAndEast,ENG,NE1,North&East,https://rnli.org/find-my-nearest/lifeboat-stations/blyth-lifeboat-station,Blyth,3120,55.12559128,-1.49804901999994,-166762.054089756,7386279.07122823
79,ILB,Tyne & Wear,North & Scot South,NorthAndEast,ENG,NE1,North&East,https://rnli.org/find-my-nearest/lifeboat-stations/cullercoats-lifeboat-station,Cullercoats,3148,55.0355072,-1.43205296999997,-159415.407409392,7368760.38833733
80,ALB,Tyne & Wear,North & Scot South,NorthAndEast,ENG,NE1,North&East,https://rnli.org/find-my-nearest/lifeboat-stations/tynemouth-lifeboat-station,Tynemouth,3156,55.0091667200001,-1.43289804999995,-159509.481284669,7363645.38977689
81,ILB,Tyne & Wear,North & Scot South,NorthAndEast,ENG,NE1,North&East,https://rnli.org/find-my-nearest/lifeboat-stations/sunderland-lifeboat-station,Sunderland,3167,54.9204864500001,-1.36443995999997,-151888.761565191,7346449.42185014
82,ALB,Durham,North & Scot South,NorthAndEast,ENG,NE1,North&East,https://rnli.org/find-my-nearest/lifeboat-stations/hartlepool-lifeboat-station,Hartlepool,3210,54.69483948,-1.19103800999994,-132585.744788628,7302864.51144568
83,ILB,North Yorkshire,North & Scot South,NorthAndEast,ENG,NE2,North&East,https://rnli.org/find-my-nearest/lifeboat-stations/redcar-lifeboat-station,Redcar,3231,54.61857224,-1.06369995999995,-118410.53790402,7288187.91200181
84,ILB,North Yorkshire,North & Scot South,NorthAndEast,ENG,NE2,North&East,https://rnli.org/find-my-nearest/lifeboat-stations/staithes-and-runswick-lifeboat-station,Staithes and Runswick,3249,54.5597877500001,-0.791769029999955,-88139.3252454791,7276894.39357812
85,ALB,North Yorkshire,North & Scot South,NorthAndEast,ENG,NE2,North&East,https://rnli.org/find-my-nearest/lifeboat-stations/whitby-lifeboat-station,Whitby,3276,54.48812866,-0.613077999999973,-68247.5307765556,7263149.43898215
86,ALB,North Yorkshire,North & Scot South,NorthAndEast,ENG,NE2,North&East,https://rnli.org/find-my-nearest/lifeboat-stations/scarborough-lifeboat-station,Scarborough,3298,54.2834129300001,-0.393093999999962,-43759.0239138869,7224015.08140654
87,ILB,North Yorkshire,North & Scot South,NorthAndEast,ENG,NE2,North&East,https://rnli.org/find-my-nearest/lifeboat-stations/filey-lifeboat-station,Filey,3319,54.2113266000001,-0.283385989999942,-31546.3841047413,7210281.04796008
88,ILB,East Riding of Yorkshire,East,NorthAndEast,ENG,NE2,North&East,https://rnli.org/find-my-nearest/lifeboat-stations/flamborough-lifeboat-station,Flamborough,3337,54.1047287000001,-0.118976999999973,-13244.4590561083,7190015.65913148
89,ALB,East Riding of Yorkshire,East,NorthAndEast,ENG,NE2,North&East,https://rnli.org/find-my-nearest/lifeboat-stations/bridlington-lifeboat-station,Bridlington,3355,54.078491,-0.197905999999932,-22030.7951449261,7185035.58666939
90,ILB,East Riding of Yorkshire,East,NorthAndEast,ENG,NE2,North&East,https://rnli.org/find-my-nearest/lifeboat-stations/withernsea-lifeboat-station,Withernsea,3361,53.7260665900001,0.0407480000000646,4536.0466108515,7118446.34217739
91,ALB,East Riding of Yorkshire,East,NorthAndEast,ENG,NE2,North&East,https://rnli.org/find-my-nearest/lifeboat-stations/humber-lifeboat-station,Humber,3373,53.58114806,-0.0662370689999534,-7373.47679271374,7091226.47561936
92,ILB,Lincolnshire,East,NorthAndEast,ENG,NE2,North&East,https://rnli.org/find-my-nearest/lifeboat-stations/cleethorpes-lifeboat-station,Cleethorpes,3384,53.5569686900001,-0.0232959999999593,-2593.29885751558,7086693.98505079
93,ILB,Lincolnshire,East,NorthAndEast,ENG,NE3,North&East,https://rnli.org/find-my-nearest/lifeboat-stations/mablethorpe-lifeboat-station,Mablethorpe,3402,53.3407974200001,0.265903000000037,29600.186560408,7046286.70207075
94,ALB,Lincolnshire,East,NorthAndEast,ENG,NE3,North&East,https://rnli.org/find-my-nearest/lifeboat-stations/skegness-lifeboat-station,Skegness,3424,53.1418037400001,0.346756010000036,38600.7024627112,7009270.96985091
95,ILB,Norfolk,East,NorthAndEast,ENG,NE3,North&East,https://rnli.org/find-my-nearest/lifeboat-stations/hunstanton-lifeboat-station,Hunstanton,3435,52.9540634200001,0.502681020000068,55958.195177851,6974505.41248706
96,ALB,Norfolk,East,NorthAndEast,ENG,NE3,North&East,https://rnli.org/find-my-nearest/lifeboat-stations/wells-lifeboat-station,Wells,3446,52.97297668,0.851764980000041,94818.0438491474,6978000.90104944
97,ILB,Norfolk,East,NorthAndEast,ENG,NE3,North&East,https://rnli.org/find-my-nearest/lifeboat-stations/sheringham-lifeboat-station,Sheringham,3468,52.9459610000001,1.20262694000007,133875.818575081,6973008.41670358
98,ALB,Norfolk,East,NorthAndEast,ENG,NE3,North&East,https://rnli.org/find-my-nearest/lifeboat-stations/cromer-lifeboat-station,Cromer,3507,52.93429947,1.30163300000004,144897.122759725,6970854.33506912
99,ILB,Norfolk,East,NorthAndEast,ENG,NE3,North&East,https://rnli.org/find-my-nearest/lifeboat-stations/happisburgh-lifeboat-station,Happisburgh,3531,52.8132981700001,1.55619732000002,173235.09323626,6948537.52833877
100,ALB,Norfolk,East,NorthAndEast,ENG,NE4,North&East,https://rnli.org/find-my-nearest/lifeboat-stations/great-yarmouth-and-gorleston-lifeboat-station,Great Yarmouth and Gorleston,3553,52.5752182000001,1.73191798000005,192796.22762932,6904808.07756114
101,ALB,Suffolk,East,NorthAndEast,ENG,NE4,North&East,https://rnli.org/find-my-nearest/lifeboat-stations/lowestoft-lifeboat-station,Lowestoft,3575,52.4716720600001,1.75298703000004,195141.623546818,6885863.28069484
102,ILB,Suffolk,East,NorthAndEast,ENG,NE4,North&East,https://rnli.org/find-my-nearest/lifeboat-stations/southwold-lifeboat-station,Southwold,3597,52.3149604800001,1.67246699000003,186178.173695363,6857275.92792293
103,ALB,Suffolk,East,NorthAndEast,ENG,NE4,North&East,https://rnli.org/find-my-nearest/lifeboat-stations/aldeburgh-lifeboat-station,Aldeburgh,3624,52.15307999,1.60275900000005,178418.315744342,6827851.74754808
104,ALB,Essex,East,NorthAndEast,ENG,NE4,North&East,https://rnli.org/find-my-nearest/lifeboat-stations/harwich-lifeboat-station,Harwich,3646,51.9485969500001,1.28712201000008,143281.766742023,6790836.45472313
105,ALB,Essex,East,NorthAndEast,ENG,NE4,North&East,https://rnli.org/find-my-nearest/lifeboat-stations/walton-and-frinton-lifeboat-station,Walton and Frinton,3668,51.8472595200001,1.27116501000006,141505.441627433,6772554.99391385
106,ILB,Essex,East,NorthAndEast,ENG,NE4,North&East,https://rnli.org/find-my-nearest/lifeboat-stations/clacton-on-sea-lifeboat-station,Clacton-on-Sea,3708,51.7815284700001,1.14126897000006,127045.48059857,6760718.98760554
107,ILB,Essex,East,NorthAndEast,ENG,NE4,North&East,https://rnli.org/find-my-nearest/lifeboat-stations/west-mersea-lifeboat-station,West Mersea,3710,51.7803154000001,0.898768010000026,100050.397214487,6760500.71562247
108,ILB,Essex,South East,NorthAndEast,ENG,NE4,North&East,https://rnli.org/find-my-nearest/lifeboat-stations/burnham-on-crouch-lifeboat-station,Burnham-on-Crouch,4500,51.6291847200001,0.802529990000039,89337.2298331353,6733353.01245581
109,ILB,Essex,South East,South East,ENG,SE1,South East,https://rnli.org/find-my-nearest/lifeboat-stations/southend-on-sea-lifeboat-station,Southend-on-Sea,4522,51.53242493,0.716346030000068,79743.2752913906,6716019.44726903
110,ILB,Kent,South East,South East,ENG,SE1,South East,https://rnli.org/find-my-nearest/lifeboat-stations/gravesend-lifeboat-station,Gravesend,4530,51.4452705400001,0.374554010000054,41695.1616677847,6700438.10618003
111,ILB,Greater London,South East,South East,ENG,SE1,South East,https://rnli.org/find-my-nearest/lifeboat-stations/tower-lifeboat-station,Tower,4533,51.5099678,-0.117367999999942,-13065.3459954185,6712001.74296969
112,ILB,Greater London,South East,South East,ENG,SE1,South East,https://rnli.org/find-my-nearest/lifeboat-stations/chiswick-lifeboat-station,Chiswick,4536,51.4821357700001,-0.251577999999938,-28005.5348547833,6707025.18663145
113,ILB,Greater London,South East,South East,ENG,SE1,South East,https://rnli.org/find-my-nearest/lifeboat-stations/teddington-lifeboat-station,Teddington,4539,51.4308548000001,-0.325718999999935,-36258.8732216871,6697863.74765158
114,ALB,Kent,South East,South East,ENG,SE1,South East,https://rnli.org/find-my-nearest/lifeboat-stations/sheerness-lifeboat-station,Sheerness,4544,51.4456040000001,0.74455800000004,82883.8174260627,6700497.6649827
115,ILB,Kent,South East,South East,ENG,SE2,South East,https://rnli.org/find-my-nearest/lifeboat-stations/whitstable-lifeboat-station,Whitstable,4566,51.3625602700001,1.02577102000004,114188.307616901,6685678.75715703
116,ILB,Kent,South East,South East,ENG,SE2,South East,https://rnli.org/find-my-nearest/lifeboat-stations/margate-lifeboat-station,Margate,4588,51.39163971,1.38274801000006,153926.804368619,6690864.83626002
117,ALB,Kent,South East,South East,ENG,SE2,South East,https://rnli.org/find-my-nearest/lifeboat-stations/ramsgate-lifeboat-station,Ramsgate,4608,51.3289871200001,1.41979504000005,158050.860883621,6679695.35549262
118,ILB,Kent,South East,South East,ENG,SE2,South East,https://rnli.org/find-my-nearest/lifeboat-stations/walmer-lifeboat-station,Walmer,4626,51.2135353100001,1.40303695000006,156185.358838154,6659152.92173767
119,ALB,Kent,South East,South East,ENG,SE2,South East,https://rnli.org/find-my-nearest/lifeboat-stations/dover-lifeboat-station,Dover,5113,51.1182556200001,1.31068301000005,145904.5652646,6642238.49062146
120,ILB,Kent,South East,South East,ENG,SE2,South East,https://rnli.org/find-my-nearest/lifeboat-stations/littlestone-on-sea-lifeboat-station,Littlestone-on-Sea,5135,50.97462082,0.965587020000044,107488.655382999,6616805.66686303
121,ALB,Kent,South East,South East,ENG,SE2,South East,https://rnli.org/find-my-nearest/lifeboat-stations/dungeness-lifeboat-station,Dungeness,5146,50.9264793400001,0.976473990000045,108700.587339681,6608299.05856264
122,ILB,East Sussex,South East,South East,ENG,SE3,South East,https://rnli.org/find-my-nearest/lifeboat-stations/rye-harbour-lifeboat-station,Rye Harbour,5167,50.9384727500001,0.764048990000049,85053.5445079204,6610417.4723938
123,ALB,East Sussex,South East,South East,ENG,SE3,South East,https://rnli.org/find-my-nearest/lifeboat-stations/hastings-lifeboat-station,Hastings,5189,50.8550796500001,0.591717010000025,65869.6362469211,6595698.91501788
124,ALB,East Sussex,South East,South East,ENG,SE3,South East,https://rnli.org/find-my-nearest/lifeboat-stations/eastbourne-lifeboat-station,Eastbourne,5211,50.7911186200001,0.328049000000021,36518.247635245,6584427.86688396
125,ALB,East Sussex,South East,South East,ENG,SE3,South East,https://rnli.org/find-my-nearest/lifeboat-stations/newhaven-lifeboat-station,Newhaven,5233,50.78853989,0.0537220000000502,5980.30568440183,6583973.77330386
126,ILB,East Sussex,South East,South East,ENG,SE3,South East,https://rnli.org/find-my-nearest/lifeboat-stations/brighton-lifeboat-station,Brighton,5255,50.8106577400001,-0.10384178299995,-11559.6144066201,6587869.36281574
127,ALB,West Sussex,South East,South East,ENG,SE3,South East,https://rnli.org/find-my-nearest/lifeboat-stations/shoreham-harbour-lifeboat-station,Shoreham Harbour,5277,50.8303680400001,-0.248950999999977,-27713.0985524737,6591342.46813736
128,ILB,West Sussex,South East,South East,ENG,SE5,South East,https://rnli.org/find-my-nearest/lifeboat-stations/littlehampton-lifeboat-station,Littlehampton,5299,50.80802155,-0.544544999999971,-60618.4721140199,6587404.95713745
129,ALB,West Sussex,South East,South East,ENG,SE5,South East,https://rnli.org/find-my-nearest/lifeboat-stations/selsey-lifeboat-station,Selsey,5315,50.7282040000001,-0.779939999999954,-86822.5236493006,6573356.25048246
130,ILB,Hampshire,Channel,South East,ENG,SE5,South East,https://rnli.org/find-my-nearest/lifeboat-stations/hayling-island-lifeboat-station,Hayling Island,5320,50.78171158,-0.936767999999972,-104280.53675143,6582771.48388383
131,ILB,Hampshire,Channel,South East,ENG,SE4,South East,https://rnli.org/find-my-nearest/lifeboat-stations/portsmouth-lifeboat-station,Portsmouth,5337,50.795372,-1.02986299999998,-114643.824746831,6585176.90757803
132,ILB,Hampshire,Channel,South East,ENG,SE4,South East,https://rnli.org/find-my-nearest/lifeboat-stations/calshot-lifeboat-station,Calshot,5343,50.8202476500001,-1.30833994999995,-145643.737018491,6589558.99504517
133,ILB,Hampshire,Central,South East,ENG,SE4,South East,https://rnli.org/find-my-nearest/lifeboat-stations/lymington-lifeboat-station,Lymington,5359,50.7538108800001,-1.52921902999998,-170231.883730981,6577860.71309376
134,ALB,Isle of Wight,Channel,South East,ENG,SE4,South East,https://rnli.org/find-my-nearest/lifeboat-stations/bembridge-lifeboat-station,Bembridge,5471,50.68859482,-1.07243704999996,-119383.146313836,6566393.51414227
135,ILB,Isle of Wight,Channel,South East,ENG,SE4,South East,https://rnli.org/find-my-nearest/lifeboat-stations/cowes-lifeboat-station,Cowes,5485,50.76473236,-1.29828595999993,-144524.531971249,6579782.64167925
136,ALB,Isle of Wight,Channel,South East,ENG,SE4,South East,https://rnli.org/find-my-nearest/lifeboat-stations/yarmouth-lifeboat-station,Yarmouth (IOW),5492,50.70615387,-1.50047504999998,-167032.118514009,6569479.42214575
137,ILB,Dorset,Channel,South East,ENG,SE5,South East,https://rnli.org/find-my-nearest/lifeboat-stations/mudeford-lifeboat-station,Mudeford,6506,50.7242851300001,-1.74226605999996,-193948.170625599,6572667.10600009
138,ILB,Dorset,Channel,South East,ENG,SE5,South East,https://rnli.org/find-my-nearest/lifeboat-stations/poole-lifeboat-station,Poole,6515,50.71268845,-1.99197494999993,-221745.637106949,6570628.13428135
139,ALB,Dorset,Channel,South East,ENG,SE5,South East,https://rnli.org/find-my-nearest/lifeboat-stations/swanage-lifeboat-station,Swanage,6522,50.6072921800001,-1.94666003999993,-216701.204400405,6552120.04889545
140,ALB,Dorset,Channel,South West,ENG,SW2,South West,https://rnli.org/find-my-nearest/lifeboat-stations/weymouth-lifeboat-station,Weymouth,6544,50.60724258,-2.45015811999997,-272750.354281401,6552111.34866848
141,ILB,Dorset,Central,South West,ENG,SW2,South West,https://rnli.org/find-my-nearest/lifeboat-stations/lyme-regis-lifeboat-station,Lyme Regis,6565,50.72043991,-2.93901705999997,-327169.882551941,6571990.96910184
142,ALB,Devon,Channel,South West,ENG,SW2,South West,https://rnli.org/find-my-nearest/lifeboat-stations/exmouth-lifeboat-station,Exmouth,6586,50.61104584,-3.39897608999996,-378372.287557308,6552778.49675716
143,ILB,Devon,Channel,South West,ENG,SW2,South West,https://rnli.org/find-my-nearest/lifeboat-stations/teignmouth-lifeboat-station,Teignmouth,6598,50.5421638500001,-3.49782609999994,-389376.220335415,6540703.92253136
144,ALB,Devon,Channel,South West,ENG,SW2,South West,https://rnli.org/find-my-nearest/lifeboat-stations/torbay-lifeboat-station,Torbay,6609,50.3991546600001,-3.50548600999997,-390228.917616141,6515691.51906208
145,ILB,Devon,Channel,South West,ENG,SW2,South West,https://rnli.org/find-my-nearest/lifeboat-stations/dart-lifeboat-station,Dart,6613,50.3547439600001,-3.57801603999997,-398302.923622961,6507939.41930529
146,ALB,Devon,South West,South West,ENG,SW2,South West,https://rnli.org/find-my-nearest/lifeboat-stations/salcombe-lifeboat-station,Salcombe,6617,50.23866272,-3.76665806999995,-419302.458344769,6487711.07135249
147,ALB,Channel Isles,Channel,South West,CHI,SW1,South West,https://rnli.org/find-my-nearest/lifeboat-stations/st-peter-port-lifeboat-station,St Peter Port,6625,49.4579658500001,-2.52986192999992,-281622.94182488,6352928.91455859
148,ILB,Channel Isles,Channel,South West,CHI,SW1,South West,https://rnli.org/find-my-nearest/lifeboat-stations/st-catherine-lifeboat-station,St Catherine,6643,49.2179336500001,-2.03017210999997,-225997.725507902,6311921.40347849
149,ALB,Channel Isles,Channel,South West,CHI,SW1,South West,https://rnli.org/find-my-nearest/lifeboat-stations/st-helier-lifeboat-station,St Helier,6661,49.1806716900001,-2.11303400999998,-235221.870022067,6305573.38786322
150,ALB,Channel Isles,Channel,South West,CHI,SW1,South West,https://rnli.org/find-my-nearest/lifeboat-stations/alderney-lifeboat-station,Alderney,6678,49.7240982100001,-2.20012998999994,-244917.350165803,6398630.90846798
151,ALB,Devon,South West,South West,ENG,SW2,South West,https://rnli.org/find-my-nearest/lifeboat-stations/plymouth-lifeboat-station,Plymouth,6716,50.3630409200001,-4.15038203999995,-462018.415290343,6509387.14216509
152,ILB,Cornwall,South West,South West,ENG,SW3,South West,https://rnli.org/find-my-nearest/lifeboat-stations/looe-lifeboat-station,Looe,6725,50.3519706700001,-4.45314979999995,-495722.368162162,6507455.56892856
153,ALB,Cornwall,South West,South West,ENG,SW3,South West,https://rnli.org/find-my-nearest/lifeboat-stations/fowey-lifeboat-station,Fowey,6738,50.33872604,-4.63234281999996,-515670.043902273,6505145.19443226
154,ALB,Cornwall,South West,South West,ENG,SW4,South West,https://rnli.org/find-my-nearest/lifeboat-stations/falmouth-lifeboat-station,Falmouth,6750,50.15130615,-5.05911397999995,-563177.992118726,6472520.75166458
155,ALB,Cornwall,South West,South West,ENG,SW4,South West,https://rnli.org/find-my-nearest/lifeboat-stations/the-lizard-lifeboat-station,The Lizard,6794,49.96951183,-5.18704500999996,-577419.209234987,6440997.50026236
156,ALB,Cornwall,South West,South West,ENG,SW4,South West,https://rnli.org/find-my-nearest/lifeboat-stations/penlee-lifeboat-station,Penlee,6816,50.10393143,-5.54872321999994,-617681.043403207,6464294.42684697
157,ALB,Cornwall,South West,South West,ENG,SW4,South West,https://rnli.org/find-my-nearest/lifeboat-stations/st-marys-lifeboat-station,St Mary's,6835,49.9168586700001,-6.31166696999998,-702611.553157121,6431889.65794458
158,ALB,Cornwall,South West,South West,ENG,SW4,South West,https://rnli.org/find-my-nearest/lifeboat-stations/sennen-cove-lifeboat-station,Sennen Cove,7601,50.0779304500001,-5.70370101999993,-634933.093183467,6459782.97650884
159,ALB,Cornwall,South West,South West,ENG,SW4,South West,https://rnli.org/find-my-nearest/lifeboat-stations/st-ives-lifeboat-station,St Ives,7613,50.21273804,-5.47952794999998,-609978.261181508,6483200.16157029
160,ILB,Cornwall,South West,South West,ENG,SW4,South West,https://rnli.org/find-my-nearest/lifeboat-stations/st-agnes-lifeboat-station,St Agnes,7625,50.3192367600001,-5.20183276999995,-579065.375148159,6501746.6830929
161,ILB,Cornwall,South West,South West,ENG,SW4,South West,https://rnli.org/find-my-nearest/lifeboat-stations/newquay-lifeboat-station,Newquay (Cornwall),7637,50.4164772,-5.08729218999997,-566314.776107394,6518717.22006633
162,ALB,Cornwall,South West,South West,ENG,SW4,South West,https://rnli.org/find-my-nearest/lifeboat-stations/padstow-lifeboat-station,Padstow,7659,50.5490303,-5.02173089999997,-559016.526688844,6541906.77554129
163,ILB,Cornwall,South West,South West,ENG,SW3,South West,https://rnli.org/find-my-nearest/lifeboat-stations/rock-lifeboat-station,Rock,7700,50.5446167000001,-4.92449283999997,-548192.035363918,6541133.5885058
164,ILB,Cornwall,South West,South West,ENG,SW3,South West,https://rnli.org/find-my-nearest/lifeboat-stations/port-isaac-lifeboat-station,Port Isaac,7771,50.5920066800001,-4.83199309999998,-537895.011408609,6549439.2869242
165,ILB,Cornwall,South West,South West,ENG,SW3,South West,https://rnli.org/find-my-nearest/lifeboat-stations/bude-lifeboat-station,Bude,7793,50.83073425,-4.55008315999993,-506512.940438241,6591407.01100965
166,ILB,Devon,South West,South West,ENG,SW3,South West,https://rnli.org/find-my-nearest/lifeboat-stations/clovelly-lifeboat-station,Clovelly,7815,50.9983253500001,-4.39756822999993,-489535.05609227,6620997.50189037
167,ALB,Devon,South West,South West,ENG,SW3,South West,https://rnli.org/find-my-nearest/lifeboat-stations/appledore-lifeboat-station,Appledore,7836,51.0570089500001,-4.19977759799997,-467517.103654354,6631384.14800015
168,ALB,Devon,South West,South West,ENG,SW3,South West,https://rnli.org/find-my-nearest/lifeboat-stations/ilfracombe-lifeboat-station,Ilfracombe,7860,51.2096595800001,-4.11611508999994,-458203.835865302,6658464.20434462
169,ILB,Somerset,Wales South & Severn,South West,ENG,SW1,South West,https://rnli.org/find-my-nearest/lifeboat-stations/minehead-lifeboat-station,Minehead,7901,51.2140235900001,-3.47530602999996,-386869.297610388,6659239.69322705
170,ILB,Somerset,Wales South & Severn,South West,ENG,SW1,South West,https://rnli.org/find-my-nearest/lifeboat-stations/burnham-on-sea-lifeboat-station,Burnham-on-Sea,7918,51.2337188700001,-2.99720000999997,-333646.778918791,6662740.47861845
171,ILB,Somerset,Wales South & Severn,South West,ENG,SW1,South West,https://rnli.org/find-my-nearest/lifeboat-stations/weston-super-mare-lifeboat-station,Weston-Super-Mare,7923,51.35225296,-2.98818492999993,-332643.224803726,6683841.32358655
172,ILB,Somerset,Wales South & Severn,South West,ENG,SW1,South West,https://rnli.org/find-my-nearest/lifeboat-stations/portishead-lifeboat-station,Portishead,7950,51.4938920000001,-2.75696799999997,-306904.273893347,6709126.90987703
173,ILB,South Glamorgan,Wales South & Severn,WalesAndWest,WAL,WW5,Wales&West,https://rnli.org/find-my-nearest/lifeboat-stations/penarth-lifeboat-station,Penarth,8085,51.4325599700001,-3.16901897999998,-352773.579167816,6698168.21403503
174,ALB,South Glamorgan,Wales South & Severn,WalesAndWest,WAL,WW5,Wales&West,https://rnli.org/find-my-nearest/lifeboat-stations/barry-dock-lifeboat-station,Barry Dock,8102,51.39315033,-3.26149701999998,-363068.187490177,6691134.33296409
175,ILB,Mid Glamorgan,Wales South & Severn,WalesAndWest,WAL,WW5,Wales&West,https://rnli.org/find-my-nearest/lifeboat-stations/porthcawl-lifeboat-station,Porthcawl,8146,51.47415161,-3.70202207999995,-412107.21285105,6705598.12514582
176,ILB,West Glamorgan,Wales South & Severn,WalesAndWest,WAL,WW5,Wales&West,https://rnli.org/find-my-nearest/lifeboat-stations/port-talbot-lifeboat-station,Port Talbot,8168,51.5935440100001,-3.81685590999996,-424890.456332492,6726964.03502263
177,ALB,West Glamorgan,Wales South & Severn,WalesAndWest,WAL,WW5,Wales&West,https://rnli.org/find-my-nearest/lifeboat-stations/the-mumbles-lifeboat-station,The Mumbles,8180,51.56985474,-3.97417497999993,-442403.13509696,6722720.25362026
178,ILB,West Glamorgan,Wales South & Severn,WalesAndWest,WAL,WW5,Wales&West,https://rnli.org/find-my-nearest/lifeboat-stations/horton-and-port-eynon-lifeboat-station,Horton and Port Eynon,8212,51.5483017000001,-4.20110082999997,-467664.405166796,6718861.08500609
179,ILB,Dyfed,Wales South & Severn,WalesAndWest,WAL,WW5,Wales&West,https://rnli.org/find-my-nearest/lifeboat-stations/burry-port-lifeboat-station,Burry Port,8226,51.6797332800001,-4.24847793999993,-472938.400927248,6742422.99484071
180,ALB,Dyfed,Wales South & Severn,WalesAndWest,WAL,WW5,Wales&West,https://rnli.org/find-my-nearest/lifeboat-stations/tenby-lifeboat-station,Tenby,8235,51.6730232200001,-4.69381713999996,-522513.333901536,6741218.41908985
181,ALB,Dyfed,Wales South & Severn,WalesAndWest,WAL,WW5,Wales&West,https://rnli.org/find-my-nearest/lifeboat-stations/angle-lifeboat-station,Angle,8257,51.6893920900001,-5.07906293999997,-565398.700187784,6744157.23737746
182,ILB,Dyfed,Wales South & Severn,WalesAndWest,WAL,WW4,Wales&West,https://rnli.org/find-my-nearest/lifeboat-stations/little-and-broad-haven-lifeboat-station,Little and Broad Haven,8279,51.77315521,-5.10714911999997,-568525.239443712,6759212.47679877
183,ALB,Dyfed,Wales South & Severn,WalesAndWest,WAL,WW4,Wales&West,https://rnli.org/find-my-nearest/lifeboat-stations/st-davids-lifeboat-station,St Davids,8291,51.8785858200001,-5.30905198999994,-591000.964121809,6778201.91521335
184,ALB,Dyfed,Wales South & Severn,WalesAndWest,WAL,WW4,Wales&West,https://rnli.org/find-my-nearest/lifeboat-stations/fishguard-lifeboat-station,Fishguard,8313,52.01329803,-4.98410176999994,-554827.671098247,6802530.2660075
185,ILB,Dyfed,Wales South & Severn,WalesAndWest,WAL,WW4,Wales&West,https://rnli.org/find-my-nearest/lifeboat-stations/cardigan-lifeboat-station,Cardigan,8317,52.10474014,-4.69953298999997,-523149.619412987,6819086.01632281
186,ALB,Dyfed,Wales South & Severn,WalesAndWest,WAL,WW4,Wales&West,https://rnli.org/find-my-nearest/lifeboat-stations/new-quay-lifeboat-station,New Quay (Ceredigion),8325,52.21351242,-4.35761880999996,-485087.907000387,6838823.69091878
187,ILB,Dyfed,Wales South & Severn,WalesAndWest,WAL,WW4,Wales&West,https://rnli.org/find-my-nearest/lifeboat-stations/aberystwyth-lifeboat-station,Aberystwyth,8358,52.4087524400001,-4.08892583999994,-455177.142400252,6874373.2733204
188,ILB,Dyfed,Wales South & Severn,WalesAndWest,WAL,WW4,Wales&West,https://rnli.org/find-my-nearest/lifeboat-stations/borth-lifeboat-station,Borth,8379,52.4812011700001,-4.05140208999995,-451000.017657599,6887604.86202002
189,ILB,Gwynedd,Wales South & Severn,WalesAndWest,WAL,WW4,Wales&West,https://rnli.org/find-my-nearest/lifeboat-stations/aberdovey-lifeboat-station,Aberdovey,8390,52.54315948,-4.04566192999994,-450361.025969325,6898937.84109045
190,ALB,Gwynedd,Wales & North West,WalesAndWest,WAL,WW4,Wales&West,https://rnli.org/find-my-nearest/lifeboat-stations/barmouth-lifeboat-station,Barmouth,8414,52.7209549,-4.05568217999996,-451476.47509695,6931548.00944551
191,ILB,Gwynedd,Wales & North West,WalesAndWest,WAL,WW4,Wales&West,https://rnli.org/find-my-nearest/lifeboat-stations/criccieth-lifeboat-station,Criccieth,8420,52.9180641200001,-4.23047875999993,-470934.741374951,6967856.3579225
192,ALB,Gwynedd,Wales & North West,WalesAndWest,WAL,WW3,Wales&West,https://rnli.org/find-my-nearest/lifeboat-stations/pwllheli-lifeboat-station,Pwllheli,8442,52.8868702570001,-4.40387450899993,-490237.06785935,6962099.33392201
193,ILB,Gwynedd,Wales South & Severn,WalesAndWest,WAL,WW3,Wales&West,https://rnli.org/find-my-nearest/lifeboat-stations/abersoch-lifeboat-station,Abersoch,8464,52.8264770500001,-4.50444316999994,-501432.319991633,6950965.14932548
194,ALB,Gwynedd,Wales & North West,WalesAndWest,WAL,WW3,Wales&West,https://rnli.org/find-my-nearest/lifeboat-stations/porthdinllaen-lifeboat-station,Porthdinllaen,8486,52.94698715,-4.56472301999997,-508142.642198731,6973197.9917411
195,ILB,Gwynedd,Wales & North West,WalesAndWest,WAL,WW3,Wales&West,https://rnli.org/find-my-nearest/lifeboat-stations/trearddur-bay-lifeboat-station,Trearddur Bay,8513,53.2806549100001,-4.61976193999993,-514269.546746938,7035081.15444002
196,ALB,Gwynedd,Wales & North West,WalesAndWest,WAL,WW3,Wales&West,https://rnli.org/find-my-nearest/lifeboat-stations/holyhead-lifeboat-station,Holyhead,8525,53.3180275,-4.64183616999998,-516726.838790197,7042042.43087469
197,ALB,Gwynedd,Wales & North West,WalesAndWest,WAL,WW3,Wales&West,https://rnli.org/find-my-nearest/lifeboat-stations/moelfre-lifeboat-station,Moelfre,8537,53.3546638500001,-4.23195695999993,-471099.293846243,7048872.48949782
198,ILB,Gwynedd,Wales & North West,WalesAndWest,WAL,WW3,Wales&West,https://rnli.org/find-my-nearest/lifeboat-stations/beaumaris-lifeboat-station,Beaumaris,8559,53.26221466,-4.09085416999994,-455391.803113933,7031648.5889871
199,ILB,Clwyd,Wales & North West,WalesAndWest,WAL,WW3,Wales&West,https://rnli.org/find-my-nearest/lifeboat-stations/conwy-lifeboat-station,Conwy,8560,53.28094101,-3.82638597999994,-425951.338872114,7035134.42226998
200,ALB,Clwyd,Wales & North West,WalesAndWest,WAL,WW3,Wales&West,https://rnli.org/find-my-nearest/lifeboat-stations/llandudno-lifeboat-station,Llandudno,8571,53.3228833000001,-3.80224999999996,-423264.53386872,7042947.35305034
201,ALB,Clwyd,Wales & North West,WalesAndWest,WAL,WW3,Wales&West,https://rnli.org/find-my-nearest/lifeboat-stations/rhyl-lifeboat-station,Rhyl,8592,53.32505035,-3.48888611999996,-388381.026314116,7043351.23561815
202,ILB,Clwyd,Wales & North West,WalesAndWest,WAL,WW2,Wales&West,https://rnli.org/find-my-nearest/lifeboat-stations/flint-lifeboat-station,Flint,8666,53.2505073500001,-3.12846993999995,-348259.680682857,7029470.0965868
203,ALB,Louth,Central,Ireland,IRL,IR2,Ireland,https://rnli.org/find-my-nearest/lifeboat-stations/clogher-head-lifeboat-station,Clogherhead,9118,53.7884521500001,-6.23533486999997,-694114.30265394,7130193.03141549
204,ILB,Dublin,Central,Ireland,IRL,IR2,Ireland,https://rnli.org/find-my-nearest/lifeboat-stations/skerries-lifeboat-station,Skerries,9129,53.5858268700001,-6.10565185999997,-679678.0560162,7092103.83099453
205,ALB,Dublin,Central,Ireland,IRL,IR2,Ireland,https://rnli.org/find-my-nearest/lifeboat-stations/howth-lifeboat-station,Howth,9136,53.3896064800001,-6.06827020999998,-675516.749773189,7055392.26269269
206,ALB,Dublin,Central,Ireland,IRL,IR2,Ireland,https://rnli.org/find-my-nearest/lifeboat-stations/dun-laoghaire-lifeboat-station,Dun Laoghaire,9154,53.2936973600001,-6.13104199999998,-682504.473472171,7037509.83923951
207,ALB,Wicklow,Central,Ireland,IRL,IR2,Ireland,https://rnli.org/find-my-nearest/lifeboat-stations/wicklow-lifeboat-station,Wicklow,9172,52.98164368,-6.03272485999997,-671559.85951112,6979603.21954474
208,ALB,Wicklow,Central,Ireland,IRL,IR2,Ireland,https://rnli.org/find-my-nearest/lifeboat-stations/arklow-lifeboat-station,Arklow,9190,52.7919540400001,-6.14506196999997,-684065.169393507,6944607.3849241
209,ILB,Wexford,Central,Ireland,IRL,IR2,Ireland,https://rnli.org/find-my-nearest/lifeboat-stations/courtown-lifeboat-station,Courtown,9200,52.64348984,-6.22582578999993,-693055.756710422,6917323.53995713
210,ILB,Wexford,Central,Ireland,IRL,IR2,Ireland,https://rnli.org/find-my-nearest/lifeboat-stations/wexford-lifeboat-station,Wexford,9202,52.34187317,-6.46169900999996,-719313.043452596,6862178.13333012
211,ALB,Wexford,Central,Ireland,IRL,IR3,Ireland,https://rnli.org/find-my-nearest/lifeboat-stations/rosslare-harbour-lifeboat-station,Rosslare Harbour,9203,52.25397873,-6.33573722999995,-705291.04224358,6846178.9875862
212,ALB,Wexford,South,Ireland,IRL,IR3,Ireland,https://rnli.org/find-my-nearest/lifeboat-stations/kilmore-quay-lifeboat-station,Kilmore Quay,9225,52.1732788100001,-6.58971786999996,-733564.037759731,6831517.33032633
213,ILB,Wexford,South,Ireland,IRL,IR3,Ireland,https://rnli.org/find-my-nearest/lifeboat-stations/fethard-lifeboat-station,Fethard,9234,52.18775558,-6.83819818999996,-761224.74045428,6834145.52756
214,ALB,Waterford,South,Ireland,IRL,IR3,Ireland,https://rnli.org/find-my-nearest/lifeboat-stations/dunmore-east-lifeboat-station,Dunmore East,9237,52.14705658,-6.99252986999994,-778404.864485149,6826758.97059095
215,ILB,Waterford,South,Ireland,IRL,IR3,Ireland,https://rnli.org/find-my-nearest/lifeboat-stations/tramore-lifeboat-station,Tramore,9259,52.1541099500001,-7.16057300999995,-797111.341261253,6828038.61938879
216,ILB,Waterford,South,Ireland,IRL,IR3,Ireland,https://rnli.org/find-my-nearest/lifeboat-stations/helvick-head-lifeboat-station,Helvick Head,9267,52.0546112100001,-7.54407214999998,-839802.270245714,6810005.89121492
217,ILB,Cork,South,Ireland,IRL,IR3,Ireland,https://rnli.org/find-my-nearest/lifeboat-stations/youghal-lifeboat-station,Youghal,9271,51.95144272,-7.84411811999996,-873203.234840686,6791350.43276782
218,ALB,Cork,South,Ireland,IRL,IR3,Ireland,https://rnli.org/find-my-nearest/lifeboat-stations/ballycotton-lifeboat-station,Ballycotton,9292,51.8269615200001,-8.00167560999995,-890742.454398151,6768898.1469161
219,ILB,Cork,South,Ireland,IRL,IR4,Ireland,https://rnli.org/find-my-nearest/lifeboat-stations/crosshaven-lifeboat-station,Crosshaven,9298,51.80447388,-8.29796123999995,-923724.819859115,6764848.7423667
220,ILB,Cork,South,Ireland,IRL,IR4,Ireland,https://rnli.org/find-my-nearest/lifeboat-stations/kinsale-lifeboat-station,Kinsale,9299,51.70006053,-8.51780391199998,-948197.594160791,6746073.18945716
221,ALB,Cork,South,Ireland,IRL,IR4,Ireland,https://rnli.org/find-my-nearest/lifeboat-stations/courtmacsherry-harbour-lifeboat-station,Courtmacsherry Harbour,9300,51.63493729,-8.70929145999997,-969513.890497403,6734384.69236998
222,ILB,Cork,South,Ireland,IRL,IR4,Ireland,https://rnli.org/find-my-nearest/lifeboat-stations/union-hall-lifeboat-station,Union Hall,9311,51.5587120800001,-9.13395289999994,-1016786.98575774,6720724.88195268
223,ALB,Cork,South,Ireland,IRL,IR4,Ireland,https://rnli.org/find-my-nearest/lifeboat-stations/baltimore-lifeboat-station,Baltimore,9322,51.4877243000001,-9.37198352999997,-1043284.43428254,6708024.21004207
224,ALB,Cork,South,Ireland,IRL,IR4,Ireland,https://rnli.org/find-my-nearest/lifeboat-stations/castletownbere-lifeboat-station,Castletownbere,9338,51.6520867400001,-9.90839275999997,-1102997.23662296,6737461.0932355
225,ALB,Kerry,South,Ireland,IRL,IR4,Ireland,https://rnli.org/find-my-nearest/lifeboat-stations/valentia-lifeboat-station,Valentia,9344,51.92696762,-10.2881917999999,-1145276.27235953,6786931.02019232
226,ALB,Kerry,South,Ireland,IRL,IR4,Ireland,https://rnli.org/find-my-nearest/lifeboat-stations/fenit-lifeboat-station,Fenit,9353,52.2717018100001,-9.86300754999996,-1097944.97815621,6849402.50902018
227,ILB,Tipperary,Central,Ireland,IRL,IR5,Ireland,https://rnli.org/find-my-nearest/lifeboat-stations/lough-derg-lifeboat-station,Lough Derg,9357,52.9260788,-8.27562999999998,-921238.917593536,6969336.1871924
228,ILB,Clare,South,Ireland,IRL,IR5,Ireland,https://rnli.org/find-my-nearest/lifeboat-stations/kilrush-lifeboat-station,Kilrush,9360,52.6299705500001,-9.50054835999993,-1057596.20569206,6914843.65248618
229,ALB,Galway,Central,Ireland,IRL,IR5,Ireland,https://rnli.org/find-my-nearest/lifeboat-stations/aran-islands-lifeboat-station,Aran Islands,9366,53.1198349000001,-9.66784286999996,-1076219.34535778,7005194.96826038
230,ILB,Galway,Central,Ireland,IRL,IR5,Ireland,https://rnli.org/find-my-nearest/lifeboat-stations/galway-lifeboat-station,Galway,9371,53.26913834,-9.04687881999996,-1007093.94351085,7032937.22573697
231,ILB,Westmeath,Central,Ireland,IRL,IR5,Ireland,https://rnli.org/find-my-nearest/lifeboat-stations/lough-ree-lifeboat-station,Lough Ree,9374,53.464049,-7.92836799999998,-882581.888581682,7069299.99342472
232,ALB,Galway,Central,Ireland,IRL,IR5,Ireland,https://rnli.org/find-my-nearest/lifeboat-stations/clifden-lifeboat-station,Clifden,9377,53.486161,-10.050669,-1118835.35521174,7073435.76699248
233,ALB,Mayo,Central,Ireland,IRL,IR5,Ireland,https://rnli.org/find-my-nearest/lifeboat-stations/achill-island-lifeboat-station,Achill Island,9380,53.88277435,-9.94461154999993,-1107029.0938829,7147986.34477773
234,ALB,Mayo,Central,Ireland,IRL,IR6,Ireland,https://rnli.org/find-my-nearest/lifeboat-stations/ballyglass-lifeboat-station,Ballyglass,9382,54.2537918100001,-9.89318847999994,-1101304.70391547,7218368.70051923
235,ILB,Sligo,North & IOM,Ireland,IRL,IR6,Ireland,https://rnli.org/find-my-nearest/lifeboat-stations/sligo-bay-lifeboat-station,Sligo Bay,9384,54.30506516,-8.56790923999995,-953775.293759778,7228145.00065248
236,ILB,Leitrim,North & IOM,Ireland,IRL,IR6,Ireland,https://rnli.org/find-my-nearest/lifeboat-stations/bundoran-lifeboat-station,Bundoran,9385,54.4770202600001,-8.28913592999993,-922742.39084382,7261020.89036939
237,ALB,Donegal,North & IOM,Ireland,IRL,IR6,Ireland,https://rnli.org/find-my-nearest/lifeboat-stations/arranmore-lifeboat-station,Arranmore,9388,54.9969673200001,-8.49843978999996,-946041.989960091,7361277.55394571
238,ALB,Donegal,North & IOM,Ireland,IRL,IR6,Ireland,https://rnli.org/find-my-nearest/lifeboat-stations/lough-swilly-lifeboat-station,Lough Swilly,9584,55.1409034700001,-7.47342776999994,-831938.173836704,7389260.76631368
